STARLINK-37036          
1 68077U 26042J   26071.58335648 -.01491762  64901-3 -38726-2 0  9993
2 68077  53.1596 180.4335 0001246  62.9780 101.9564 15.94451179  2518
STARLINK-36973          
1 68078U 26042K   26071.58335648 -.01486187  64608-3 -38106-2 0  9995
2 68078  53.1597 180.4229 0001092  70.9248  99.0525 15.94682735  2517
STARLINK-37063          
1 68079U 26042L   26071.58335648 -.01488319  64703-3 -38395-2 0  9991
2 68079  53.1592 180.4287 0001290  66.3938 100.8341 15.94568015  2513
STARLINK-37051          
1 68080U 26042M   26071.58335648 -.01496220  65568-3 -37872-2 0  9992
2 68080  53.1594 180.4124 0001086  61.6518 113.4243 15.94924444  2515
STARLINK-37066          
1 68081U 26042N   26071.58335648 -.01492607  65199-3 -38025-2 0  9999
2 68081  53.1599 180.4176 0001248  67.4525 105.1774 15.94803695  2511
STARLINK-37054          
1 68082U 26042P   26071.58335648 -.01486646  64876-3 -37401-2 0  9994
2 68082  53.1594 180.4079 0001219  66.1080 111.1866 15.95035967  2518
STARLINK-37065          
1 68083U 26042Q   26071.58335648 -.01485671  64874-3 -37143-2 0  9993
2 68083  53.1597 180.4028 0001173  67.6094 112.1509 15.95152716  2513
STARLINK-37037          
1 68084U 26042R   26071.58335648 -.01488899  65211-3 -36986-2 0  9999
2 68084  53.1592 180.3974 0001118  67.3735 115.0078 15.95271941  2511
STARLINK-37068          
1 68085U 26042S   26071.58335648 -.01485990  65054-3 -36684-2 0  9999
2 68085  53.1592 180.3934 0001310  68.9274 115.3979 15.95386927  2511
STARLINK-37067          
1 68086U 26042T   26071.58335648 -.01494672  65833-3 -36662-2 0  9998
2 68086  53.1594 180.3876 0001227  65.2023 121.9422 15.95507548  2518
STARLINK-37062          
1 68087U 26042U   26071.58335648 -.01490896  65604-3 -36344-2 0  9996
2 68087  53.1594 180.3824 0001258  66.5503 123.0504 15.95621004  2511
STARLINK-37059          
1 68088U 26042V   26071.58335648 -.01495333  66042-3 -36221-2 0  9999
2 68088  53.1593 180.3768 0001276  63.7889 128.5172 15.95738970  2516
